OBJECT_NAME,OBJECT_ID,EPOCH,MEAN_MOTION,ECCENTRICITY,INCLINATION,RA_OF_ASC_NODE,ARG_OF_PERICENTER,MEAN_ANOMALY,EPHEMERIS_TYPE,CLASSIFICATION_TYPE,NORAD_CAT_ID,ELEMENT_SET_NO,REV_AT_EPOCH,BSTAR,MEAN_MOTION_DOT,MEAN_MOTION_DDOT
STARLINK-31001,2023-191V,2026-07-12T04:57:28.832544,15.27579777,.00016169,43.0012,120.2142,276.8246,83.2421,0,U,58527,999,14451,.23249356E-4,.378E-5,0
STARLINK-31004,2023-191W,2026-07-11T23:52:50.749248,15.27456208,.00007758,43.0040,121.3006,245.6135,114.4636,0,U,58528,999,14448,.11735999E-2,.32051E-3,0
STARLINK-30988,2023-191X,2026-07-11T22:24:13.723488,15.27576894,.00013689,43.0034,121.6939,259.1973,100.8724,0,U,58529,999,14447,.16437507E-4,.19E-5,0
STARLINK-31009,2023-191Y,2026-07-12T04:46:24.253248,15.27580881,.000119,43.0027,120.2457,272.1103,87.9612,0,U,58530,999,14453,.53931216E-4,.1222E-4,0
STARLINK-31012,2023-192A,2026-07-12T00:01:47.515296,15.34392232,.00009432,53.1587,204.9313,77.4072,282.7036,0,U,58531,999,14502,.1420017E-3,.4423E-4,0
STARLINK-31035,2023-192B,2026-07-12T00:34:16.669056,15.34334488,.00010665,53.1600,190.8484,125.0883,235.0220,0,U,58532,999,14522,-.59896403E-3,-.20516E-3,0
STARLINK-31036,2023-192C,2026-07-12T01:01:33.533472,15.34394792,.00012567,53.1574,203.0905,106.1188,253.9953,0,U,58533,999,14505,-.20799596E-4,-.1079E-4,0
STARLINK-30936,2023-192D,2026-07-12T00:52:31.986912,15.31712604,.00008782,53.1586,194.5261,93.2888,266.8214,0,U,58534,999,14517,-.12584967E-4,-.756E-5,0
STARLINK-31032,2023-192E,2026-07-12T01:52:55.488000,15.34396012,.00014892,53.1579,202.5751,74.9923,285.1245,0,U,58535,999,14506,.11630303E-3,.3555E-4,0
STARLINK-31037,2023-192F,2026-07-11T23:58:04.162656,15.34388778,.0001054,53.1593,203.5201,75.1333,284.9786,0,U,58536,999,14504,.11264449E-4,.4E-7,0
STARLINK-31041,2023-192G,2026-07-12T00:07:08.841216,15.34386138,.00011033,53.1584,203.5358,84.8680,275.2448,0,U,58537,999,14504,.5565026E-5,-.188E-5,0
STARLINK-31014,2023-192H,2026-07-12T01:04:35.078016,15.34392850,.00012203,53.1571,203.0767,77.0174,283.0965,0,U,58538,999,14505,.2941212E-5,-.277E-5,0
STARLINK-31055,2023-192J,2026-07-12T00:46:24.031776,15.34395114,.00013079,53.1566,202.9951,89.0227,271.0925,0,U,58539,999,14505,.12033559E-4,.3E-6,0
STARLINK-31019,2023-192K,2026-07-12T01:22:45.568704,15.34385750,.00013533,53.1591,203.1498,97.3826,262.7331,0,U,58540,999,14505,.45593164E-4,.1164E-4,0
STARLINK-31045,2023-192L,2026-07-12T05:52:09.084576,15.30190672,.00012799,53.1572,281.0364,99.5382,260.5764,0,U,58541,999,14396,.13054761E-4,.27E-6,0
STARLINK-31030,2023-192M,2026-07-12T00:49:25.995360,15.34389526,.00012879,53.1567,203.0067,86.4029,273.7121,0,U,58542,999,14505,.46160598E-4,.1183E-4,0
STARLINK-31049,2023-192N,2026-07-12T00:52:27.726528,15.34394936,.00012387,53.1578,203.0216,84.5479,275.5664,0,U,58543,999,14505,.8339008E-5,-.95E-6,0
STARLINK-31048,2023-192P,2026-07-11T13:22:47.031456,15.30184729,.00014085,53.1610,207.0909,61.1496,298.9646,0,U,58544,999,14495,-.59171053E-4,-.211E-4,0
STARLINK-31057,2023-192Q,2026-07-12T00:58:31.293408,15.34392058,.00037235,53.1574,203.0446,107.7571,252.3838,0,U,58545,999,14505,.1907805E-4,.267E-5,0
STARLINK-31050,2023-192R,2026-07-12T06:07:10.719552,15.34386935,.00011421,53.1590,202.2511,89.8025,270.3109,0,U,58546,999,14508,-.44352104E-4,-.1874E-4,0
STARLINK-31063,2023-192S,2026-07-12T00:06:04.564800,15.30186067,.00011154,53.1591,194.9697,67.1508,292.9611,0,U,58547,999,14516,-.30995513E-4,-.1276E-4,0
STARLINK-31016,2023-192T,2026-07-12T01:41:37.867488,15.34391224,.00008695,53.1587,204.6055,94.3846,265.7256,0,U,58548,999,14503,.49222038E-4,.1287E-4,0
STARLINK-31053,2023-192U,2026-07-12T01:07:36.619968,15.34394612,.00012004,53.1568,203.0828,110.4110,249.7021,0,U,58549,999,14505,-.7949217E-5,-.645E-5,0
STARLINK-31056,2023-192V,2026-07-12T02:04:18.693408,15.30185063,.00010584,53.1614,204.7517,57.2984,302.8119,0,U,58550,999,14503,-.7506361E-5,-.581E-5,0
STARLINK-30999,2023-192W,2026-07-12T03:15:17.605152,15.34386087,.00013178,53.1586,194.2871,73.2131,286.9016,0,U,58551,999,14518,.49216194E-4,.1286E-4,0
STARLINK-31046,2023-192X,2026-07-12T01:28:48.357120,15.34394726,.00007124,53.1589,203.1771,96.6737,263.4347,0,U,58552,999,14505,.41213838E-4,.1017E-4,0
HONGHU 2,2023-193C,2026-07-12T05:13:28.359840,15.35933731,.00395661,97.2793,183.2989,178.0589,182.0816,0,U,58555,999,10585,.16747423E-3,.5927E-4,0
YAOGAN-39 05A,2023-194A,2026-07-12T08:04:27.126912,15.23073932,.00061508,35.0007,259.2251,189.0045,171.0560,0,U,58557,999,14419,.17796258E-3,.4264E-4,0
YAOGAN-39 05B,2023-194B,2026-07-12T07:19:19.943616,15.17899976,.00097077,34.9925,284.4909,186.2526,173.8067,0,U,58558,999,14391,.15831525E-3,.3255E-4,0
YAOGAN-39 05C,2023-194C,2026-07-12T07:25:14.460096,15.17901503,.0012892,34.9923,284.4889,265.7415,94.1825,0,U,58559,999,14394,.16070797E-3,.3308E-4,0
