STARLINK-31001          
1 58527U 23191V   26193.20658371  .00000378  00000+0  23249-4 0  9997
2 58527  43.0012 120.2142 0001616 276.8246  83.2421 15.27579777144512
STARLINK-31004          
1 58528U 23191W   26192.99503182  .00032051  00000+0  11736-2 0  9991
2 58528  43.0040 121.3006 0000775 245.6135 114.4636 15.27456208144485
STARLINK-30988          
1 58529U 23191X   26192.93349217  .00000190  00000+0  16438-4 0  9998
2 58529  43.0034 121.6939 0001368 259.1973 100.8724 15.27576894144476
STARLINK-31009          
1 58530U 23191Y   26193.19889182  .00001222  00000+0  53931-4 0  9995
2 58530  43.0027 120.2457 0001190 272.1103  87.9612 15.27580881144532
STARLINK-31012          
1 58531U 23192A   26193.00124439  .00004423  00000+0  14200-3 0  9995
2 58531  53.1587 204.9313 0000943  77.4072 282.7036 15.34392232145022
STARLINK-31035          
1 58532U 23192B   26193.02380404 -.00020516  00000+0 -59896-3 0  9997
2 58532  53.1600 190.8484 0001066 125.0883 235.0220 15.34334488145225
STARLINK-31036          
1 58533U 23192C   26193.04274923 -.00001079  00000+0 -20800-4 0  9995
2 58533  53.1574 203.0905 0001256 106.1188 253.9953 15.34394792145057
STARLINK-30936          
1 58534U 23192D   26193.03648133 -.00000756  00000+0 -12585-4 0  9995
2 58534  53.1586 194.5261 0000878  93.2888 266.8214 15.31712604145171
STARLINK-31032          
1 58535U 23192E   26193.07842000  .00003555  00000+0  11630-3 0  9996
2 58535  53.1579 202.5751 0001489  74.9923 285.1245 15.34396012145063
STARLINK-31037          
1 58536U 23192F   26192.99865929  .00000004  00000+0  11264-4 0  9992
2 58536  53.1593 203.5201 0001054  75.1333 284.9786 15.34388778145042
STARLINK-31041          
1 58537U 23192G   26193.00496344 -.00000188  00000+0  55650-5 0  9999
2 58537  53.1584 203.5358 0001103  84.8680 275.2448 15.34386138145049
STARLINK-31014          
1 58538U 23192H   26193.04485044 -.00000277  00000+0  29412-5 0  9995
2 58538  53.1571 203.0767 0001220  77.0174 283.0965 15.34392850145057
STARLINK-31055          
1 58539U 23192J   26193.03222259  .00000030  00000+0  12034-4 0  9999
2 58539  53.1566 202.9951 0001307  89.0227 271.0925 15.34395114145052
STARLINK-31019          
1 58540U 23192K   26193.05747186  .00001164  00000+0  45593-4 0  9999
2 58540  53.1591 203.1498 0001353  97.3826 262.7331 15.34385750145052
STARLINK-31045          
1 58541U 23192L   26193.24454959  .00000027  00000+0  13055-4 0  9999
2 58541  53.1572 281.0364 0001279  99.5382 260.5764 15.30190672143964
STARLINK-31030          
1 58542U 23192M   26193.03432865  .00001183  00000+0  46161-4 0  9997
2 58542  53.1567 203.0067 0001287  86.4029 273.7121 15.34389526145052
STARLINK-31049          
1 58543U 23192N   26193.03643202 -.00000095  00000+0  83390-5 0  9995
2 58543  53.1578 203.0216 0001238  84.5479 275.5664 15.34394936145058
STARLINK-31048          
1 58544U 23192P   26192.55748879 -.00002110  00000+0 -59171-4 0  9998
2 58544  53.1610 207.0909 0001408  61.1496 298.9646 15.30184729144958
STARLINK-31057          
1 58545U 23192Q   26193.04063997  .00000267  00000+0  19078-4 0  9996
2 58545  53.1574 203.0446 0003723 107.7571 252.3838 15.34392058145052
STARLINK-31050          
1 58546U 23192R   26193.25498518 -.00001874  00000+0 -44352-4 0  9991
2 58546  53.1590 202.2511 0001142  89.8025 270.3109 15.34386935145083
STARLINK-31063          
1 58547U 23192S   26193.00421950 -.00001276  00000+0 -30996-4 0  9996
2 58547  53.1591 194.9697 0001115  67.1508 292.9611 15.30186067145169
STARLINK-31016          
1 58548U 23192T   26193.07057717  .00001287  00000+0  49222-4 0  9992
2 58548  53.1587 204.6055 0000869  94.3846 265.7256 15.34391224145030
STARLINK-31053          
1 58549U 23192U   26193.04695162 -.00000645  00000+0 -79492-5 0  9994
2 58549  53.1568 203.0828 0001200 110.4110 249.7021 15.34394612145053
STARLINK-31056          
1 58550U 23192V   26193.08632747 -.00000581  00000+0 -75064-5 0  9990
2 58550  53.1614 204.7517 0001058  57.2984 302.8119 15.30185063145039
STARLINK-30999          
1 58551U 23192W   26193.13562043  .00001286  00000+0  49216-4 0  9998
2 58551  53.1586 194.2871 0001317  73.2131 286.9016 15.34386087145181
STARLINK-31046          
1 58552U 23192X   26193.06167080  .00001017  00000+0  41214-4 0  9995
2 58552  53.1589 203.1771 0000712  96.6737 263.4347 15.34394726145055
HONGHU 2                
1 58555U 23193C   26193.21768935  .00005927  00000+0  16747-3 0  9998
2 58555  97.2793 183.2989 0039566 178.0589 182.0816 15.35933731105859
YAOGAN-39 05A           
1 58557U 23194A   26193.33642508  .00004264  00000+0  17796-3 0  9999
2 58557  35.0007 259.2251 0006150 189.0045 171.0560 15.23073932144196
YAOGAN-39 05B           
1 58558U 23194B   26193.30509194  .00003255  00000+0  15832-3 0  9998
2 58558  34.9925 284.4909 0009707 186.2526 173.8067 15.17899976143916
YAOGAN-39 05C           
1 58559U 23194C   26193.30919514  .00003308  00000+0  16071-3 0  9995
2 58559  34.9923 284.4889 0012892 265.7415  94.1825 15.17901503143941
